{"type": "FeatureCollection", "features": [ {"type": "Feature", "properties": {"norad_id": 66535, "name": "STARLINK-35514", "group": "last-30-days", "lat": -21.570578761791243, "lon": -109.29869814210413, "alt_km": 415.4598092092947, "timestamp": "2025-12-14T03:55:51.547528+00:00", "meta": {"OBJECT_NAME": "STARLINK-35514", "OBJECT_ID": "2025-265V", "EPOCH": "2025-12-13T05:22:40.099872", "MEAN_MOTION": 15.50633453, "ECCENTRICITY": 0.00018804, "INCLINATION": 43.0005, "RA_OF_ASC_NODE": 51.0982, "ARG_OF_PERICENTER": 262.6011, "MEAN_ANOMALY": 97.4636, "EPHEMERIS_TYPE": 0, "CLASSIFICATION_TYPE": "U", "NORAD_CAT_ID": 66535, "ELEMENT_SET_NO": 999, "REV_AT_EPOCH": 383, "BSTAR": 0.0024871599, "MEAN_MOTION_DOT": 0.00148661, "MEAN_MOTION_DDOT": 0}, "tle": {"line1": "1 66535U 25265V   25347.22407523  .00148661  00000+0  24872-2 0  9991", "line2": "2 66535  43.0005  51.0982 0001880 262.6011  97.4636 15.50633453  3833"}}, "geometry": {"type": "Point", "coordinates": [-109.29869814210413, -21.570578761791243]}}, {"type": "Feature", "properties": {"norad_id": 66536, "name": "STARLINK-35640", "group": "last-30-days", "lat": -22.736390148040062, "lon": -107.6817887917956, "alt_km": 415.4792714773721, "timestamp": "2025-12-14T03:55:51.547539+00:00", "meta": {"OBJECT_NAME": "STARLINK-35640", "OBJECT_ID": "2025-265W", "EPOCH": "2025-12-13T05:22:11.657856", "MEAN_MOTION": 15.50659199, "ECCENTRICITY": 0.0001372, "INCLINATION": 43.0002, "RA_OF_ASC_NODE": 51.0952, "ARG_OF_PERICENTER": 180.5949, "MEAN_ANOMALY": 179.491, "EPHEMERIS_TYPE": 0, "CLASSIFICATION_TYPE": "U", "NORAD_CAT_ID": 66536, "ELEMENT_SET_NO": 999, "REV_AT_EPOCH": 383, "BSTAR": 0.0021129476, "MEAN_MOTION_DOT": 0.00125988, "MEAN_MOTION_DDOT": 0}, "tle": {"line1": "1 66536U 25265W   25347.22374604  .00125988  00000+0  21129-2 0  9994", "line2": "2 66536  43.0002  51.0952 0001372 180.5949 179.4910 15.50659199  3833"}}, "geometry": {"type": "Point", "coordinates": [-107.6817887917956, -22.736390148040062]}}, {"type": "Feature", "properties": {"norad_id": 66537, "name": "STARLINK-35582", "group": "last-30-days", "lat": -23.892547425842036, "lon": -106.02659603746582, "alt_km": 415.8680084155876, "timestamp": "2025-12-14T03:55:51.547549+00:00", "meta": {"OBJECT_NAME": "STARLINK-35582", "OBJECT_ID": "2025-265X", "EPOCH": "2025-12-13T05:21:40.104576", "MEAN_MOTION": 15.50601035, "ECCENTRICITY": 0.00014328, "INCLINATION": 43.0004, "RA_OF_ASC_NODE": 51.093, "ARG_OF_PERICENTER": 268.2264, "MEAN_ANOMALY": 91.8432, "EPHEMERIS_TYPE": 0, "CLASSIFICATION_TYPE": "U", "NORAD_CAT_ID": 66537, "ELEMENT_SET_NO": 999, "REV_AT_EPOCH": 383, "BSTAR": 0.0026849954, "MEAN_MOTION_DOT": 0.00160573, "MEAN_MOTION_DDOT": 0}, "tle": {"line1": "1 66537U 25265X   25347.22338084  .00160573  00000+0  26850-2 0  9992", "line2": "2 66537  43.0004  51.0930 0001432 268.2264  91.8432 15.50601035  3835"}}, "geometry": {"type": "Point", "coordinates": [-106.02659603746582, -23.892547425842036]}}, {"type": "Feature", "properties": {"norad_id": 66538, "name": "STARLINK-35577", "group": "last-30-days", "lat": -24.452842266067876, "lon": -105.20737817641651, "alt_km": 417.3390970866294, "timestamp": "2025-12-14T03:55:51.547559+00:00", "meta": {"OBJECT_NAME": "STARLINK-35577", "OBJECT_ID": "2025-265Y", "EPOCH": "2025-12-13T00:00:07.999776", "MEAN_MOTION": 15.507032, "ECCENTRICITY": 0.00014175, "INCLINATION": 43.0006, "RA_OF_ASC_NODE": 52.3925, "ARG_OF_PERICENTER": 257.729, "MEAN_ANOMALY": 296.1667, "EPHEMERIS_TYPE": 0, "CLASSIFICATION_TYPE": "U", "NORAD_CAT_ID": 66538, "ELEMENT_SET_NO": 999, "REV_AT_EPOCH": 503, "BSTAR": -0.0025754371, "MEAN_MOTION_DOT": -0.00149245, "MEAN_MOTION_DDOT": 0}, "tle": {"line1": "1 66538U 25265Y   25347.00009259 -.00149245  00000+0 -25754-2 0  9995", "line2": "2 66538  43.0006  52.3925 0001417 257.7290 296.1667 15.50703200  5032"}}, "geometry": {"type": "Point", "coordinates": [-105.20737817641651, -24.452842266067876]}}, {"type": "Feature", "properties": {"norad_id": 66539, "name": "STARLINK-35697", "group": "last-30-days", "lat": -26.29038431277495, "lon": -102.40609286320507, "alt_km": 415.3217784388071, "timestamp": "2025-12-14T03:55:51.547572+00:00", "meta": {"OBJECT_NAME": "STARLINK-35697", "OBJECT_ID": "2025-265Z", "EPOCH": "2025-12-13T05:20:41.724096", "MEAN_MOTION": 15.5069585, "ECCENTRICITY": 0.00017066, "INCLINATION": 43.0001, "RA_OF_ASC_NODE": 51.0863, "ARG_OF_PERICENTER": 241.6545, "MEAN_ANOMALY": 118.4143, "EPHEMERIS_TYPE": 0, "CLASSIFICATION_TYPE": "U", "NORAD_CAT_ID": 66539, "ELEMENT_SET_NO": 999, "REV_AT_EPOCH": 383, "BSTAR": 0.0025208463, "MEAN_MOTION_DOT": 0.00151061, "MEAN_MOTION_DDOT": 0}, "tle": {"line1": "1 66539U 25265Z   25347.22270514  .00151061  00000+0  25208-2 0  9995", "line2": "2 66539  43.0001  51.0863 0001706 241.6545 118.4143 15.50695850  3833"}}, "geometry": {"type": "Point", "coordinates": [-102.40609286320507, -26.29038431277495]}}, {"type": "Feature", "properties": {"norad_id": 66540, "name": "STARLINK-35818", "group": "last-30-days", "lat": -27.189409472860127, "lon": -100.97200708383251, "alt_km": 416.0591232171455, "timestamp": "2025-12-14T03:55:51.547582+00:00", "meta": {"OBJECT_NAME": "STARLINK-35818", "OBJECT_ID": "2025-265AA", "EPOCH": "2025-12-13T05:20:13.302816", "MEAN_MOTION": 15.50657031, "ECCENTRICITY": 0.00015051, "INCLINATION": 43, "RA_OF_ASC_NODE": 51.0834, "ARG_OF_PERICENTER": 263.7572, "MEAN_ANOMALY": 96.3116, "EPHEMERIS_TYPE": 0, "CLASSIFICATION_TYPE": "U", "NORAD_CAT_ID": 66540, "ELEMENT_SET_NO": 999, "REV_AT_EPOCH": 383, "BSTAR": 0.0018156398, "MEAN_MOTION_DOT": 0.00107954, "MEAN_MOTION_DDOT": 0}, "tle": {"line1": "1 66540U 25265AA  25347.22237619  .00107954  00000+0  18156-2 0  9992", "line2": "2 66540  43.0000  51.0834 0001505 263.7572  96.3116 15.50657031  3837"}}, "geometry": {"type": "Point", "coordinates": [-100.97200708383251, -27.189409472860127]}}, {"type": "Feature", "properties": {"norad_id": 66541, "name": "STARLINK-35796", "group": "last-30-days", "lat": -23.718841085266014, "lon": -106.28064037551358, "alt_km": 418.71160660326314, "timestamp": "2025-12-14T03:55:51.547592+00:00", "meta": {"OBJECT_NAME": "STARLINK-35796", "OBJECT_ID": "2025-265AB", "EPOCH": "2025-12-13T05:20:16.840896", "MEAN_MOTION": 15.48919341, "ECCENTRICITY": 0.00037393, "INCLINATION": 43.0001, "RA_OF_ASC_NODE": 51.0833, "ARG_OF_PERICENTER": 213.4837, "MEAN_ANOMALY": 146.5787, "EPHEMERIS_TYPE": 0, "CLASSIFICATION_TYPE": "U", "NORAD_CAT_ID": 66541, "ELEMENT_SET_NO": 999, "REV_AT_EPOCH": 383, "BSTAR": 0.0030483948, "MEAN_MOTION_DOT": 0.00172094, "MEAN_MOTION_DDOT": 0}, "tle": {"line1": "1 66541U 25265AB  25347.22241714  .00172094  00000+0  30484-2 0  9999", "line2": "2 66541  43.0001  51.0833 0003739 213.4837 146.5787 15.48919341  3839"}}, "geometry": {"type": "Point", "coordinates": [-106.28064037551358, -23.718841085266014]}}, {"type": "Feature", "properties": {"norad_id": 66542, "name": "STARLINK-35833", "group": "last-30-days", "lat": -29.483079017151105, "lon": -97.08199883750575, "alt_km": 415.6249852461506, "timestamp": "2025-12-14T03:55:51.547602+00:00", "meta": {"OBJECT_NAME": "STARLINK-35833", "OBJECT_ID": "2025-265AC", "EPOCH": "2025-12-13T05:19:12.702720", "MEAN_MOTION": 15.50653208, "ECCENTRICITY": 0.00016874, "INCLINATION": 43.0002, "RA_OF_ASC_NODE": 51.0786, "ARG_OF_PERICENTER": 257.3217, "MEAN_ANOMALY": 102.7455, "EPHEMERIS_TYPE": 0, "CLASSIFICATION_TYPE": "U", "NORAD_CAT_ID": 66542, "ELEMENT_SET_NO": 999, "REV_AT_EPOCH": 383, "BSTAR": 0.0030020225, "MEAN_MOTION_DOT": 0.00180367, "MEAN_MOTION_DDOT": 0}, "tle": {"line1": "1 66542U 25265AC  25347.22167480  .00180367  00000+0  30020-2 0  9995", "line2": "2 66542  43.0002  51.0786 0001687 257.3217 102.7455 15.50653208  3833"}}, "geometry": {"type": "Point", "coordinates": [-97.08199883750575, -29.483079017151105]}}, {"type": "Feature", "properties": {"norad_id": 66543, "name": "STARLINK-35315", "group": "last-30-days", "lat": -30.37165399377423, "lon": -95.4717306001281, "alt_km": 416.03411626153684, "timestamp": "2025-12-14T03:55:51.547612+00:00", "meta": {"OBJECT_NAME": "STARLINK-35315", "OBJECT_ID": "2025-265AD", "EPOCH": "2025-12-13T05:18:43.099488", "MEAN_MOTION": 15.50629115, "ECCENTRICITY": 0.00016357, "INCLINATION": 43, "RA_OF_ASC_NODE": 51.0752, "ARG_OF_PERICENTER": 255.2243, "MEAN_ANOMALY": 104.8436, "EPHEMERIS_TYPE": 0, "CLASSIFICATION_TYPE": "U", "NORAD_CAT_ID": 66543, "ELEMENT_SET_NO": 999, "REV_AT_EPOCH": 383, "BSTAR": 0.0020777903, "MEAN_MOTION_DOT": 0.00123718, "MEAN_MOTION_DDOT": 0}, "tle": {"line1": "1 66543U 25265AD  25347.22133217  .00123718  00000+0  20778-2 0  9993", "line2": "2 66543  43.0000  51.0752 0001635 255.2243 104.8436 15.50629115  3836"}}, "geometry": {"type": "Point", "coordinates": [-95.4717306001281, -30.37165399377423]}}, {"type": "Feature", "properties": {"norad_id": 66544, "name": "STARLINK-35728", "group": "last-30-days", "lat": -31.389658231518762, "lon": -93.54114565819104, "alt_km": 416.0917178430218, "timestamp": "2025-12-14T03:55:51.547625+00:00", "meta": {"OBJECT_NAME": "STARLINK-35728", "OBJECT_ID": "2025-265AE", "EPOCH": "2025-12-13T05:18:13.486752", "MEAN_MOTION": 15.50625856, "ECCENTRICITY": 0.00014941, "INCLINATION": 42.9996, "RA_OF_ASC_NODE": 51.0727, "ARG_OF_PERICENTER": 254.6492, "MEAN_ANOMALY": 105.4203, "EPHEMERIS_TYPE": 0, "CLASSIFICATION_TYPE": "U", "NORAD_CAT_ID": 66544, "ELEMENT_SET_NO": 999, "REV_AT_EPOCH": 383, "BSTAR": 0.0023006695, "MEAN_MOTION_DOT": 0.00137248, "MEAN_MOTION_DDOT": 0}, "tle": {"line1": "1 66544U 25265AE  25347.22098943  .00137248  00000+0  23007-2 0  9991", "line2": "2 66544  42.9996  51.0727 0001494 254.6492 105.4203 15.50625856  3830"}}, "geometry": {"type": "Point", "coordinates": [-93.54114565819104, -31.389658231518762]}}]}